NORAD_CAT_ID,OBJECT_NAME,OBJECT_TYPE,EPOCH,MEAN_MOTION,ECCENTRICITY,INCLINATION,RA_OF_ASC_NODE,ARG_OF_PERICENTER,MEAN_ANOMALY,BSTAR,MEAN_MOTION_DOT,MEAN_MOTION_DDOT,TLE_LINE0,TLE_LINE1,TLE_LINE2,SEMIMAJOR_AXIS,PERIOD,APOGEE,PERIGEE,DECAYED
40536,KOMPSAT 3A,PAYLOAD,2021-03-25 13:36:14,15.12373339,4.28e-05,97.5719,27.1558,251.8374,194.2338,7.3903e-05,1.217e-05,0.0,0 KOMPSAT 3A,1 40536U 15014A   21084.56682875  .00001217  00000-0  73903-4 0  9998,2 40536  97.5719  27.1558 0000428 251.8374 194.2338 15.12373339331206,6907.101,95.215,529.262,528.6709999999998,0.0
40536,KOMPSAT 3A,PAYLOAD,2021-03-25 22:56:14,15.12374344,4.370000000000001e-05,97.5719,27.5415,243.0032,159.0794,7.4245e-05,1.223e-05,0.0,0 KOMPSAT 3A,1 40536U 15014A   21084.95572242  .00001223  00000-0  74245-4 0  9994,2 40536  97.5719  27.5415 0000437 243.0032 159.0794 15.12374344331264,6907.098000000001,95.215,529.265,528.6619999999998,0.0
40536,KOMPSAT 3A,PAYLOAD,2021-03-26 02:20:41,15.12374915,4.31e-05,97.572,27.6824,245.0404,209.5989,7.5434e-05,1.243e-05,0.0,0 KOMPSAT 3A,1 40536U 15014A   21085.09770737  .00001243  00000-0  75434-4 0  9992,2 40536  97.5720  27.6824 0000431 245.0404 209.5989 15.12374915331283,6907.097,95.214,529.259,528.664,0.0
40536,KOMPSAT 3A,PAYLOAD,2021-03-26 07:23:31,15.12375252,4.5799999999999995e-05,97.5719,27.8906,238.8306,280.0541,7.3846e-05,1.216e-05,0.0,0 KOMPSAT 3A,1 40536U 15014A   21085.30800385  .00001216  00000-0  73846-4 0  9994,2 40536  97.5719  27.8906 0000458 238.8306 280.0541 15.12375252331311,6907.096,95.214,529.2769999999998,528.644,0.0
40536,KOMPSAT 3A,PAYLOAD,2021-03-26 11:51:30,15.12381451,1.55e-05,97.5713,28.0757,220.26,231.2316,0.00010789,1.807e-05,0.0,0 KOMPSAT 3A,1 40536U 15014A   21085.49409918  .00001807  00000-0  10789-3 0  9993,2 40536  97.5713  28.0757 0000155 220.2600 231.2316 15.12381451331347,6907.0769999999975,95.214,529.049,528.835,0.0
40536,KOMPSAT 3A,PAYLOAD,2021-03-26 15:00:21,15.12376215,4.47e-05,97.572,28.2054,237.8043,207.2625,7.4993e-05,1.236e-05,0.0,0 KOMPSAT 3A,1 40536U 15014A   21085.62525181  .00001236  00000-0  74993-4 0  9993,2 40536  97.5720  28.2054 0000447 237.8043 207.2625 15.12376215331366,6907.093000000003,95.214,529.266,528.649,0.0
40536,KOMPSAT 3A,PAYLOAD,2021-03-27 03:52:46,15.12438978,2.27e-05,97.5728,28.7371,102.2003,21.7365,0.00060938,0.00010533,0.0,0 KOMPSAT 3A,1 40536U 15014A   21086.16165426  .00010533  00000-0  60938-3 0  9998,2 40536  97.5728  28.7371 0000227 102.2003  21.7365 15.12438978331442,6906.901999999999,95.21,528.923,528.61,0.0
40536,KOMPSAT 3A,PAYLOAD,2021-03-27 08:35:43,15.12389247,4.72e-05,97.5719,28.9343,278.6686,194.2401,0.00013316,2.246e-05,0.0,0 KOMPSAT 3A,1 40536U 15014A   21086.35814288  .00002246  00000-0  13316-3 0  9996,2 40536  97.5719  28.9343 0000472 278.6686 194.2401 15.12389247331474,6907.053000000001,95.214,529.244,528.592,0.0
40536,KOMPSAT 3A,PAYLOAD,2021-03-27 19:34:57,15.1241415,8.03e-05,97.5728,29.3888,249.5069,194.5613,0.00026660000000000003,4.565e-05,0.0,0 KOMPSAT 3A,1 40536U 15014A   21086.81594559  .00004565  00000-0  26660-3 0  9995,2 40536  97.5728  29.3888 0000803 249.5069 194.5613 15.12414150331541,6906.977,95.212,529.3969999999998,528.288,0.0
40536,KOMPSAT 3A,PAYLOAD,2021-03-28 03:42:02,15.12419861,8.609999999999999e-05,97.5727,29.7265,235.2128,249.3751,0.00028414,4.871e-05,0.0,0 KOMPSAT 3A,1 40536U 15014A   21087.15419500  .00004871  00000-0  28414-3 0  9994,2 40536  97.5727  29.7265 0000861 235.2128 249.3751 15.12419861331596,6906.96,95.212,529.419,528.23,0.0
40536,KOMPSAT 3A,PAYLOAD,2021-03-28 10:09:12,15.12415175,2.68e-05,97.5727,29.9885,123.3428,24.2731,-0.00072236,-0.00012578,0.0,0 KOMPSAT 3A,1 40536U 15014A   21087.42306188 -.00012578  00000-0 -72236-3 0  9997,2 40536  97.5727  29.9885 0000268 123.3428  24.2731 15.12415175331634,6906.974,95.212,529.024,528.654,0.0
40536,KOMPSAT 3A,PAYLOAD,2021-03-28 19:09:42,15.12436534,0.0001065,97.5733,30.3634,186.0571,203.9233,0.00035969,6.187e-05,0.0,0 KOMPSAT 3A,1 40536U 15014A   21087.79840535  .00006187  00000-0  35969-3 0  9995,2 40536  97.5733  30.3634 0001065 186.0571 203.9233 15.12436534331691,6906.909000000002,95.211,529.51,528.038,0.0
40536,KOMPSAT 3A,PAYLOAD,2021-03-28 22:35:11,15.12438936,0.00010680000000000001,97.5728,30.5055,184.4883,261.9727,0.00036488,6.277e-05,0.0,0 KOMPSAT 3A,1 40536U 15014A   21087.94110534  .00006277  00000-0  36488-3 0  9998,2 40536  97.5728  30.5055 0001068 184.4883 261.9727 15.12438936331718,6906.901999999999,95.21,529.504,528.029,0.0
40536,KOMPSAT 3A,PAYLOAD,2021-03-29 03:31:53,15.12441828,0.0001062,97.5726,30.7101,187.5602,300.0289,0.00036774,6.328e-05,0.0,0 KOMPSAT 3A,1 40536U 15014A   21088.14714400  .00006328  00000-0  36774-3 0  9998,2 40536  97.5726  30.7101 0001062 187.5602 300.0289 15.12441828331742,6906.893,95.21,529.491,528.024,0.0
40536,KOMPSAT 3A,PAYLOAD,2021-03-29 08:25:50,15.12446461,7.170000000000001e-05,97.5727,30.9129,177.7989,340.5325,0.00038655,6.656e-05,0.0,0 KOMPSAT 3A,1 40536U 15014A   21088.35127325  .00006656  00000-0  38655-3 0  9999,2 40536  97.5727  30.9129 0000717 177.7989 340.5325 15.12446461331771,6906.879,95.21,529.239,528.249,0.0
40536,KOMPSAT 3A,PAYLOAD,2021-03-29 18:58:52,15.12451582,4.320000000000001e-05,97.5729,31.3479,182.7631,207.6616,0.00038786,6.68e-05,0.0,0 KOMPSAT 3A,1 40536U 15014A   21088.79088804  .00006680  00000-0  38786-3 0  9997,2 40536  97.5729  31.3479 0000432 182.7631 207.6616 15.12451582331844,6906.863,95.21,529.0269999999998,528.43,0.0
40536,KOMPSAT 3A,PAYLOAD,2021-03-29 20:48:39,15.12452966,6.24e-05,97.5728,31.4235,185.6131,259.6366,0.00039154,6.744e-05,0.0,0 KOMPSAT 3A,1 40536U 15014A   21088.86712282  .00006744  00000-0  39154-3 0  9990,2 40536  97.5728  31.4235 0000624 185.6131 259.6366 15.12452966331851,6906.859,95.21,529.155,528.293,0.0
40536,KOMPSAT 3A,PAYLOAD,2021-03-30 04:59:09,15.12455994,5.3299999999999995e-05,97.573,31.7614,187.9182,310.7987,0.00038349,6.604e-05,0.0,0 KOMPSAT 3A,1 40536U 15014A   21089.20774885  .00006604  00000-0  38349-3 0  9996,2 40536  97.5730  31.7614 0000533 187.9182 310.7987 15.12455994331906,6906.85,95.209,529.0830000000002,528.347,0.0
40536,KOMPSAT 3A,PAYLOAD,2021-03-30 12:42:15,15.12457573,5.91e-05,97.5731,32.080999999999996,199.5409,249.0979,0.00036921,6.356e-05,0.0,0 KOMPSAT 3A,1 40536U 15014A   21089.52934648  .00006356  00000-0  36921-3 0  9994,2 40536  97.5731  32.0810 0000591 199.5409 249.0979 15.12457573331959,6906.845,95.209,529.118,528.302,0.0
40536,KOMPSAT 3A,PAYLOAD,2021-03-30 20:37:38,15.12457343,4.6299999999999994e-05,97.5732,32.4087,193.862,251.0691,0.00034298,5.9e-05,0.0,0 KOMPSAT 3A,1 40536U 15014A   21089.85946764  .00005900  00000-0  34298-3 0  9991,2 40536  97.5732  32.4087 0000463 193.8620 251.0691 15.12457343332006,6906.846,95.209,529.03,528.391,0.0
40536,KOMPSAT 3A,PAYLOAD,2021-03-31 04:40:46,15.124576500000002,1.25e-05,97.5736,32.7412,181.0728,289.5339,0.00031973,5.495e-05,0.0,0 KOMPSAT 3A,1 40536U 15014A   21090.19498742  .00005495  00000-0  31973-3 0  9994,2 40536  97.5736  32.7412 0000125 181.0728 289.5339 15.12457650332059,6906.845,95.209,528.7959999999998,528.623,0.0
40536,KOMPSAT 3A,PAYLOAD,2021-03-31 09:27:29,15.12457037,5e-05,97.5732,32.938,201.8328,272.1369,0.00030034,5.157e-05,0.0,0 KOMPSAT 3A,1 40536U 15014A   21090.39408619  .00005157  00000-0  30034-3 0  9992,2 40536  97.5732  32.9380 0000500 201.8328 272.1369 15.12457037332088,6906.847,95.209,529.057,528.366,0.0
40536,KOMPSAT 3A,PAYLOAD,2021-03-31 22:02:25,15.12452428,8.170000000000001e-05,97.5738,33.4598,162.2338,284.4128,0.00023032,3.939e-05,0.0,0 KOMPSAT 3A,1 40536U 15014A   21090.91834985  .00003939  00000-0  23032-3 0  9995,2 40536  97.5738  33.4598 0000817 162.2338 284.4128 15.12452428332160,6906.861,95.21,529.29,528.161,0.0
40536,KOMPSAT 3A,PAYLOAD,2021-04-01 02:40:41,15.12450843,8.72e-05,97.5731,33.6505,145.3779,272.7402,0.00020499,3.498e-05,0.0,0 KOMPSAT 3A,1 40536U 15014A   21091.11158861  .00003498  00000-0  20499-3 0  9994,2 40536  97.5731  33.6505 0000872 145.3779 272.7402 15.12450843332192,6906.865,95.21,529.3330000000002,528.128,0.0
40536,KOMPSAT 3A,PAYLOAD,2021-04-01 10:57:12,15.12438575,5.07e-05,97.5742,33.9916,140.7434,353.5646,7.017e-05,1.154e-05,0.0,0 KOMPSAT 3A,1 40536U 15014A   21091.45640009  .00001154  00000-0  70170-4 0  9990,2 40536  97.5742  33.9916 0000507 140.7434 353.5646 15.12438575332247,6906.903,95.21,529.118,528.418,0.0
40536,KOMPSAT 3A,PAYLOAD,2021-04-01 20:08:43,15.12438993,5.94e-05,97.5741,34.3714,146.1152,272.2067,6.5619e-05,1.075e-05,0.0,0 KOMPSAT 3A,1 40536U 15014A   21091.83939683  .00001075  00000-0  65619-4 0  9995,2 40536  97.5741  34.3714 0000594 146.1152 272.2067 15.12438993332305,6906.901999999999,95.21,529.177,528.356,0.0
40536,KOMPSAT 3A,PAYLOAD,2021-04-02 02:47:50,15.12439392,6.22e-05,97.5742,34.6464,148.6554,337.7684,6.3506e-05,1.039e-05,0.0,0 KOMPSAT 3A,1 40536U 15014A   21092.11655328  .00001039  00000-0  63506-4 0  9991,2 40536  97.5742  34.6464 0000622 148.6554 337.7684 15.12439392332346,6906.9,95.21,529.195,528.336,0.0
40536,KOMPSAT 3A,PAYLOAD,2021-04-02 10:47:27,15.124398600000001,6.61e-05,97.5742,34.9767,148.07,350.7204,6.1868e-05,1.01e-05,0.0,0 KOMPSAT 3A,1 40536U 15014A   21092.44962703  .00001010  00000-0  61868-4 0  9993,2 40536  97.5742  34.9767 0000661 148.0700 350.7204 15.12439860332393,6906.899,95.21,529.22,528.307,0.0
40536,KOMPSAT 3A,PAYLOAD,2021-04-02 19:48:54,15.12440227,7.06e-05,97.574,35.3497,145.7487,238.9895,5.8564e-05,9.53e-06,0.0,0 KOMPSAT 3A,1 40536U 15014A   21092.82562793  .00000953  00000-0  58564-4 0  9994,2 40536  97.5740  35.3497 0000706 145.7487 238.9895 15.12440227332451,6906.898,95.21,529.25,528.275,0.0
40536,KOMPSAT 3A,PAYLOAD,2021-04-03 02:35:36,15.12440784,7.240000000000001e-05,97.574,35.63,144.5161,337.0489,5.8606e-05,9.53e-06,0.0,0 KOMPSAT 3A,1 40536U 15014A   21093.10806307  .00000953  00000-0  58606-4 0  9995,2 40536  97.5740  35.6300 0000724 144.5161 337.0489 15.12440784332495,6906.896,95.21,529.261,528.261,0.0
